43578,IRIDIUM 159,2018,100.4,860.0,+,86.39,Active,1,LEO,USA,USA,Commercial/Government,Communications,Falcon,1 43578U 18061K   25072.52470330 -.00000002  00000+0 -79169-5 0  9993,2 43578  86.3923 249.1625 0002032  98.2924 261.8503 14.34217433347359,14.34217433,0.0002032,LEO
43922,IRIDIUM 180,2019,100.4,860.0,+,86.4,Active,1,LEO,USA,USA,Commercial/Government,Communications,Falcon,1 43922U 19002A   25072.59396992  .00000076  00000+0  20083-4 0  9999,2 43922  86.4042 186.0752 0002261  96.6728 263.4725 14.34216739322976,14.34216739,0.0002261,LEO
43923,IRIDIUM 176,2019,97.81,860.0,+,86.62,Active,1,LEO,USA,USA,Commercial/Government,Communications,Falcon,1 43923U 19002B   25072.81372650  .00000276  00000+0  39843-4 0  9996,2 43923  86.6172 185.9838 0002528 104.1382 256.0116 14.72241803331517,14.72241803,0.0002528,LEO
43924,IRIDIUM 168,2019,100.4,860.0,+,86.4,Active,1,LEO,USA,USA,Commercial/Government,Communications,Falcon,1 43924U 19002C   25072.58762843 -.00000206  00000+0 -80760-4 0  9997,2 43924  86.4047 186.1422 0002105  99.4173 260.7261 14.34216228322956,14.34216228,0.0002105,LEO
43925,IRIDIUM 173,2019,100.4,860.0,+,86.4,Active,1,LEO,USA,USA,Commercial/Government,Communications,Falcon,1 43925U 19002D   25072.36563151  .00000033  00000+0  46388-5 0  9990,2 43925  86.4040 186.1427 0002250  93.6127 266.5326 14.34214755322905,14.34214755,0.000225,LEO
43926,IRIDIUM 169,2019,100.1,860.0,+,86.42,Active,1,LEO,USA,USA,Commercial/Government,Communications,Falcon,1 43926U 19002E   25072.86287063  .00000845  00000+0  26979-3 0  9994,2 43926  86.4246 217.5076 0003377  72.5886 287.5681 14.38618052324048,14.38618052,0.0003377,LEO
43927,IRIDIUM 172,2019,100.4,860.0,+,86.4,Active,1,LEO,USA,USA,Commercial/Government,Communications,Falcon,1 43927U 19002F   25072.56859746  .00000805  00000+0  28030-3 0  9991,2 43927  86.4040 186.0643 0002235 100.4477 259.6971 14.34217155322944,14.34217155,0.0002235,LEO
43928,IRIDIUM 175,2019,97.81,860.0,+,86.15,Active,1,LEO,USA,USA,Commercial/Government,Communications,Falcon,1 43928U 19002G   25072.74053031  .00001074  00000+0  16637-3 0  9994,2 43928  86.1534 143.9949 0002221  66.6386 293.5064 14.72247020331494,14.7224702,0.0002221,LEO
